07633   13.52  0.15 K2555 167.56490  139.27061  203.99976    6.96683  0.2102146  0.23975203   2.5662237  0 E2025-DE5  4367  28 1953-2025 0.65 M-v 3Ek MPCLINUX   0000   (7633) Volodymyr          20250222
07634   13.94  0.15 K2555 214.27906  266.72459   92.88011    2.59333  0.1950393  0.17359956   3.1825138  0 E2025-DE5  2546  27 1982-2025 0.73 M-v 3Ek MPCLINUX   0000   (7634) Shizutani-Kou      20250222
07635   12.08  0.15 K2555 242.78672  318.68118   78.76435   11.08388  0.0995745  0.18176346   3.0864909  0 MPO840926  8900  27 1954-2024 0.48 M-v 3Ek MPCLINUX   0000   (7635) Carolinesmith      20240712
07636   13.49  0.15 K2555 341.38657   61.69531   26.40490    9.82734  0.0838067  0.23489656   2.6014667  0 E2025-DG3  6836  25 1984-2025 0.49 M-v 3Ek MPCLINUX   0000   (7636) Comba              20250224
07637   13.54  0.15 K2555  20.17983    4.50405  151.48779    7.49895  0.2077552  0.24052281   2.5607383  0 E2025-DE5  4169  26 1984-2025 0.71 M-v 3Ek MPCLINUX   0000   (7637) 1984 DN            20250223
07638   13.67  0.15 K2555  14.08537   22.82841    9.78789    6.80850  0.3112983  0.24348884   2.5399004  0 MPO887397  5206  27 1969-2024 0.59 M-v 3Ek MPCLINUX   0000   (7638) Gladman            20241228
07639   13.16  0.15 K2555 315.32116   31.26947  157.79555    0.68419  0.1094615  0.16879130   3.2426694  0 E2025-DG3  3219  28 1949-2025 0.73 M-v 3Ek MPCLINUX   0000   (7639) Offutt             20250223
07640   14.71  0.15 K2555 117.52514  143.42631  147.67526    5.21821  0.1782994  0.30384236   2.1913101  0 E2025-D47  5373  25 1953-2025 0.53 M-v 3Ek MPCLINUX   0000   (7640) Marzari            20250220
07641    9.49  0.15 K2555  26.58681  229.65010  242.06474   34.69999  0.0537132  0.08290047   5.2091243  0 E2025-DE5  4570  30 1975-2025 0.62 M-v 3Ek MPCLINUX   0009   (7641) Cteatus            20250223
07642   14.85  0.15 K2555 189.51114   52.24388   17.83500    3.82260  0.1313598  0.28657033   2.2784975  0 MPO840926  2707  23 1964-2024 0.75 M-v 3Ek MPCLINUX   0000   (7642) 1988 TZ            20240608
07643   14.72  0.15 K2555 148.13932   38.56103   44.23065    6.18649  0.1352682  0.28341974   2.2953521  0 MPO887397  2420  23 1988-2025 0.74 M-v 3Ek MPCLINUX   0000   (7643) 1988 VQ1           20250103
07644   13.70  0.15 K2555 318.17375  139.69682  219.55130   13.82812  0.1336651  0.23717509   2.5847785  0 MPO887397  4870  25 1988-2024 0.61 M-v 3Ek MPCLINUX   0000   (7644) Cslewis            20240802
07645   14.44  0.15 K2555 342.76391  214.12044  247.85115    0.39268  0.1610713  0.26972160   2.3724236  0 E2025-D47  4158  24 1989-2025 0.67 M-v 3Ek MPCLINUX   0000   (7645) Pons               20250220
07646   13.96  0.15 K2555 182.95345   96.23697  150.92206   13.98374  0.1357596  0.23362433   2.6109026  0 E2025-BI6  2960  26 1989-2025 0.72 M-v 3Ek MPCLINUX   0000   (7646) 1989 KE            20250129
07647   13.33  0.15 K2555  22.58258  340.60908   99.31911    3.37312  0.0447560  0.19989119   2.8969452  0 E2025-DG3  3865  29 1954-2025 0.70 M-v 3Ek MPCLINUX   0000   (7647) Etrepigny          20250224
07648   14.51  0.15 K2555  45.29260   53.96260   11.64684    2.71992  0.1115876  0.31118730   2.1566921  0 E2025-DG3  3980  26 1981-2025 0.58 M-v 3Ek MPCLINUX   0000   (7648) Tomboles           20250223
07649   13.81  0.15 K2555 103.68250  279.52393  139.25594    5.88039  0.0981133  0.23978664   2.5659768  0 E2025-DE5  3043  25 1990-2025 0.71 M-v 3Ek MPCLINUX   0000   (7649) Bougainville       20250223
07650   12.62  0.15 K2555 271.06779  222.80616  205.28663   11.57615  0.0349558  0.19576888   2.9374711  0 E2024-TH5  3419  27 1980-2024 0.70 M-v 3Ek MPCLINUX   0000   (7650) Kaname             20241005
07651   13.34  0.15 K2555 268.26327  127.18440  164.56128    9.23379  0.1403405  0.21232372   2.7827255  0 E2025-DE5  3797  27 1988-2025 0.71 M-v 3Ek MPCLINUX   0000   (7651) Villeneuve         20250223
07652   13.01  0.15 K2555  87.76361   26.12982   20.44993   10.09880  0.2053673  0.18612963   3.0380322  0 E2025-DG3  3728  26 1954-2025 0.66 M-v 3Ek MPCLINUX   0000   (7652) 1991 RL5           20250223
07653   13.61  0.15 K2555 347.00250   87.16530  218.45154    1.88670  0.1614085  0.28714944   2.2754331  0 MPO840927  4076  27 1953-2024 0.69 M-v 3Ek MPCLINUX   0000   (7653) 1991 UV            20240707
07654   14.67  0.15 K2555  49.96966  347.55888   49.33261    3.24407  0.2114856  0.26794986   2.3828700  0 E2025-DG3  5143  26 1954-2025 0.59 M-v 3Ek MPCLINUX   0000   (7654) 1991 VV3           20250224
07655   14.34  0.15 K2555 303.22343    9.85011  103.37451    4.01678  0.1388793  0.26247773   2.4158747  0 E2025-B14  3968  24 1977-2024 0.66 M-v 3Ek MPCLINUX   0000   (7655) Adamries           20241223
07656   14.04  0.15 K2555   1.95864  271.52505   49.95866    1.50606  0.2004221  0.18581407   3.0414708  0 E2024-VB0  2128  26 1972-2024 0.79 M-v 3Ek MPCLINUX   0000   (7656) Joemontani         20240801
07657   13.46  0.15 K2555 113.41100  299.59056   39.34873    2.69089  0.0649045  0.19834845   2.9119473  0 E2025-DG3  3596  29 1969-2025 0.74 M-v 3Ek MPCLINUX   0000   (7657) Jefflarsen         20250223
07658   13.87  0.15 K2555 132.46955  231.83536  321.81088    1.77921  0.1309690  0.26019997   2.4299531  0 E2024-T62  4912  26 1974-2024 0.63 M-v 3Ek MPCLINUX   0000   (7658) 1993 BM12          20241002
07659   13.62  0.15 K2555 234.39587   63.68883  164.24758   13.01806  0.1244895  0.23884818   2.5726938  0 E2025-D75  5697  27 1953-2025 0.57 M-v 3Ek MPCLINUX   0000   (7659) 1993 CP1           20250220
07660   14.54  0.15 K2555 317.45815  265.19105  170.46318   23.14911  0.1398731  0.37339111   1.9099708  0 E2024-TL3  3488  21 1990-2024 0.70 M-v 3Ek MPCLINUX   0006   (7660) Alexanderwilson    20241007
07661   14.84  0.15 K2555 192.03432   84.90048  154.06660    2.47006  0.0115838  0.20154433   2.8810822  0 MPO887397  1489  22 1979-2025 0.82 M-v 3Ek MPCLINUX   0000   (7661) Reincken           20250113
07662   12.54  0.15 K2555 136.17610  110.54406  198.16263   16.67759  0.1013494  0.16880704   3.2424679  0 E2025-D75  5881  27 1988-2025 0.55 M-v 3Ek MPCLINUX   0000   (7662) 1994 RM1           20250220
07663   13.71  0.15 K2555 180.32026   92.54017  171.90202   22.24443  0.2247756  0.26904174   2.3764186  0 E2025-D75  5928  26 1954-2025 0.53 M-v 3Ek MPCLINUX   0007   (7663) 1994 RX1           20250220
07664   13.50  0.15 K2555  31.05337  183.60340  187.49285    1.68153  0.1150217  0.19521682   2.9430065  0 E2025-B71  3357  25 1989-2025 0.71 M-v 3Ek MPCLINUX   0000   (7664) Namahage           20250119
07665   13.55  0.15 K2555 164.70580  203.74162  111.30710    3.22504  0.0561756  0.20135524   2.8828857  0 E2025-D75  3061  27 1954-2025 0.77 M-v 3Ek MPCLINUX   0000   (7665) Putignano          20250221
07666   13.90  0.15 K2555 325.55652  345.97558   20.05508    3.67082  0.2125311  0.22011023   2.7167055  0 MPO840927  3954  24 1976-2024 0.60 M-v 3Ek MPCLINUX   0000   (7666) Keyaki             20240707
07667   12.56  0.15 K2555 356.34261  255.95461  146.21050   11.79337  0.1157243  0.18913545   3.0057586  0 E2025-B71  4636  30 1951-2025 0.64 M-v 3Ek MPCLINUX   0000   (7667) 1995 BL3           20250119
07668   14.46  0.15 K2555  19.94368   76.09845  166.20030    2.36113  0.1746895  0.26979729   2.3719798  0 MPO887397  3389  24 1977-2024 0.72 M-v 3Ek MPCLINUX   0000   (7668) Mizunotakao        20240507
07669   13.84  0.15 K2555  77.19746  272.12811  187.82727    8.35531  0.1452710  0.21313950   2.7756205  0 E2025-DE5  3132  26 1988-2025 0.71 M-v 3Ek MPCLINUX   0000   (7669) Malse              20250222
07670   15.85  0.15 K2555 320.49900  271.48626  147.80119    2.83266  0.1715571  0.26790500   2.3831361  0 E2024-FB1  1769  21 1988-2023 0.59 M-v 3Ek MPCLINUX   0000   (7670) Kabelac            20230624
07671   14.96  0.15 K2555   9.92324   29.62079   29.52679    1.09122  0.1377883  0.30337540   2.1935581  0 E2025-B29  2976  23 1969-2025 0.73 M-v 3Ek MPCLINUX   0000   (7671) Albis              20250119
07672   15.43  0.15 K2555 253.59180   27.62226   22.26968    6.88180  0.0718789  0.29154145   2.2525227  0 MPO840927  2701  22 1978-2024 0.66 M-v 3Ek MPCLINUX   0000   (7672) Hawking            20240607
07673   14.33  0.15 K2555 263.43855  203.84748  218.64708    1.87300  0.1787364  0.25961234   2.4336185  0 MPO840927  3191  26 1953-2024 0.70 M-v 3Ek MPCLINUX   0000   (7673) Inohara            20240711
07674   12.83  0.15 K2555  27.09512  216.49845  139.41247    2.74033  0.0812882  0.19820633   2.9133391  0 E2025-B01  4461  29 1980-2025 0.70 M-v 3Ek MPCLINUX   0000   (7674) Kasuga             20250115
07675   14.48  0.15 K2555 221.06768  128.52060   28.19042    4.75025  0.0951195  0.26286179   2.4135210  0 E2024-TH5  3013  24 1976-2024 0.68 M-v 3Ek MPCLINUX   0000   (7675) Gorizia            20241004
07676   13.34  0.15 K2555 169.06044   86.39655  149.67109   12.14054  0.1369698  0.26506079   2.4001537  0 E2025-B71  4112  24 1993-2025 0.68 M-v 3Ek MPCLINUX   0007   (7676) 1995 WN8           20250121
07677   14.15  0.15 K2555   8.20166  221.97433  133.57379    2.40325  0.1032540  0.25969499   2.4331021  0 MPO887397  5093  25 1979-2024 0.62 M-v 3Ek MPCLINUX   0000   (7677) Sawa               20241003
07678   13.73  0.15 K2555 260.89004  335.84711  344.35889    8.87914  0.0908375  0.17491235   3.1665698  0 E2025-DG3  2235  25 1988-2025 0.69 M-v 3Ek MPCLINUX   0000   (7678) Onoda              20250224
07679   13.23  0.15 K2555  59.68355  294.43695  169.24705   13.32887  0.1461571  0.23948047   2.5681634  0 E2025-DG3  3531  28 1951-2025 0.68 M-v 3Ek MPCLINUX   0000   (7679) Asiago             20250223
07680   13.54  0.15 K2555 315.34839  173.96461  210.36031    8.69220  0.2084976  0.22209188   2.7005212  0 MPO840927  5590  24 1993-2024 0.51 M-v 3Ek MPCLINUX   0000   (7680) Cari               20240711
07681   14.38  0.15 K2555 319.39776  127.35842   10.38199    7.60491  0.1535393  0.27585555   2.3371230  0 E2025-DG3  7518  27 1953-2025 0.50 M-v 3Ek MPCLINUX   0000   (7681) Chenjingrun        20250224
